INTELSAT 21 (IS-21)     
1 38749U 12045A   26166.22292994 -.00000281  00000+0  00000+0 0  9993
2 38749   0.0181 333.0632 0001262 127.9734 184.7315  1.00270768 50507
INTELSAT 23 (IS-23)     
1 38867U 12057A   26166.24889909 -.00000281  00000+0  00000+0 0  9997
2 38867   0.0123   0.8781 0000360  79.9964 219.2713  1.00274229 49934
FM-6                    
1 39360U 13058A   26166.23599211  .00000000  00000+0  00000+0 0  9999
2 39360   0.0275  33.6082 0002652 135.6866  62.7935  1.00260121 46059
INTELSAT 30 (IS-30)     
1 40271U 14062A   26165.95505884 -.00000146  00000+0  00000+0 0  9991
2 40271   0.0250  48.7853 0001229 319.0302 144.2054  1.00274470  6775
DIRECTV 14              
1 40333U 14078B   26165.95419218 -.00000120  00000+0  00000+0 0  9994
2 40333   0.0128  21.6834 0000382 248.8084 237.0174  1.00269958 42029
DIRECTV 15              
1 40663U 15026A   26166.27754484 -.00000100  00000+0  00000+0 0  9995
2 40663   0.0162  20.7674 0000277 308.0997 291.7459  1.00276521 40441
SKY MEXICO-1            
1 40664U 15026B   26166.20842328 -.00000230  00000+0  00000+0 0  9998
2 40664   0.0176   4.3544 0001991 102.2268 153.1497  1.00270638 40435
INTELSAT 34 (IS-34)     
1 40874U 15039A   26166.24800785 -.00000282  00000+0  00000+0 0  9997
2 40874   0.0108 337.7344 0000544 357.0361 322.5663  1.00272132 39617
INTELSAT 31 (IS-31)     
1 41581U 16035A   26166.22813985 -.00000147  00000+0  00000+0 0  9994
2 41581   0.0175 272.6392 0001158 337.5898   0.3710  1.00270923 36669
INTELSAT 36 (IS-36)     
1 41747U 16053A   26165.99191616 -.00000019  00000+0  00000+0 0  9999
2 41747   0.0103 348.2290 0002218 342.3873 358.2556  1.00270275 35938
INTELSAT 32E (IS-32E)   
1 41945U 17007B   26166.25052118 -.00000265  00000+0  00000+0 0  9995
2 41945   0.0043  46.1687 0000809 271.5183 352.8657  1.00272098 34202
INTELSAT 35E (IS-35E)   
1 42818U 17041A   26165.68187281  .00000000  00000+0  00000+0 0  9995
2 42818   0.0256  11.6725 0001533  69.5322  32.7564  1.00268183 32796
INTELSAT 37E (IS-37E)   
1 42950U 17059A   26166.25546120 -.00000137  00000+0  00000+0 0  9998
2 42950   0.0193  23.2812 0002341  83.3053 230.9357  1.00271828 32042
AZERSPACE 2 (IS-38)     
1 43632U 18074A   26166.19666829  .00000141  00000+0  00000+0 0  9990
2 43632   0.0007   2.4382 0001185  78.7447 298.2132  1.00269716 28423
HORIZONS-3E             
1 43633U 18074B   26165.65084600 -.00000024  00000+0  00000+0 0  9993
2 43633   0.0187 163.9480 0000966 106.2603  36.0409  1.00270601 28310
AT&T T-16               
1 44333U 19034A   26166.23902545 -.00000111  00000+0  00000+0 0  9997
2 44333   0.0162  51.8585 0000775 223.6696 333.1949  1.00268623 25617
INTELSAT 39 (IS-39)     
1 44476U 19049B   26166.20004830  .00000038  00000+0  00000+0 0  9995
2 44476   0.0009   6.3091 0000942 307.0150  84.1300  1.00270337 25103
GALAXY 30 (G-30)        
1 46114U 20056C   26166.23425877  .00000041  00000+0  00000+0 0  9991
2 46114   0.0172  10.4729 0002066  74.4691 137.9090  1.00270701 21275
GALAXY 33 (G-33)        
1 54026U 22128A   26166.23269876  .00000083  00000+0  00000+0 0  9995
2 54026   0.0135 355.5054 0001588  91.4484 127.3422  1.00271300 13725
GALAXY 34 (G-34)        
1 54027U 22128B   26166.28030037  .00000063  00000+0  00000+0 0  9994
2 54027   0.0119   5.6058 0001509  96.9422 132.9203  1.00266748 13897
GALAXY 31 (G-31)        
1 54243U 22153A   26166.23503877  .00000000  00000+0  00000+0 0  9995
2 54243   0.0203  28.2919 0000994  48.1220 150.7131  1.00270257  7116
GALAXY 32 (G-32)        
1 54244U 22153B   26165.95583885 -.00000197  00000+0  00000+0 0  9999
2 54244   0.0165 349.6788 0015287 254.3091 272.5395  1.00491998 13126
GALAXY 35 (G-35)        
1 54741U 22170A   26166.24058546  .00000000  00000+0  00000+0 0  9996
2 54741   0.0191  13.8834 0001793  72.6147 170.5337  1.00269015 12876
GALAXY 36 (G-36)        
1 54742U 22170B   26165.95627219 -.00000180  00000+0  00000+0 0  9993
2 54742   0.0414 118.9764 0002457 324.6382  74.8974  1.00270930 12751
GALAXY 37 (G-37)        
1 57493U 23112A   26166.23391211  .00000052  00000+0  00000+0 0  9995
2 57493   0.0231  59.4783 0001707  21.7385 139.5101  1.00271305 10520
